EXCITE                  
1 43819U 18099BP  26068.69809098  .00002813  00000+0  19631-3 0  9999
2 43819  97.4107 111.3606 0017626 337.4818  22.5634 15.06036758396774
STARLINK-6334           
1 57238U 23094W   26068.21681556  .00000101  00000+0  22546-4 0  9993
2 57238  43.0061  20.3390 0001720 259.4052 100.6597 15.02533262147194
